COMMENT,ORIGINATOR,NORAD_CAT_ID,OBJECT_NAME,OBJECT_TYPE,CLASSIFICATION_TYPE,INTLDES,EPOCH,EPOCH_MICROSECONDS,MEAN_MOTION,ECCENTRICITY,INCLINATION,RA_OF_ASC_NODE,ARG_OF_PERICENTER,MEAN_ANOMALY,EPHEMERIS_TYPE,ELEMENT_SET_NO,REV_AT_EPOCH,BSTAR,MEAN_MOTION_DOT,MEAN_MOTION_DDOT,FILE,TLE_LINE0,TLE_LINE1,TLE_LINE2,OBJECT_ID,OBJECT_NUMBER,SEMIMAJOR_AXIS,PERIOD,APOGEE,PERIGEE,DECAYED
GENERATED VIA SPACETRACK.ORG API,18 SPCS,52365,STARLINK-3874,PAYLOAD,U,22045AL,2023-01-21 10:09:08,540928,15.08857393,0.0001079,53.2173,281.4408,95.2584,264.8531,0,999,4332,0.0013087,0.00020611,0,3757032,0 STARLINK-3874,1 52365U 22045AL  23021.42301552  .00020611  00000-0  13087-2 0  9995,2 52365  53.2173 281.4408 0001079  95.2584 264.8531 15.08857393 43321,2022-045AL,52365,6917.827,95.436,540.439,538.946,0
GENERATED VIA SPACETRACK.ORG API,18 SPCS,52365,STARLINK-3874,PAYLOAD,U,22045AL,2023-01-21 21:16:50,458368,15.08856664,0.00011,53.2173,279.3611,100.723,259.3886,0,999,4339,0.0015513,0.00024498,0,3757536,0 STARLINK-3874,1 52365U 22045AL  23021.88669512  .00024498  00000-0  15513-2 0  9991,2 52365  53.2173 279.3611 0001100 100.7230 259.3886 15.08856664 43397,2022-045AL,52365,6917.829,95.437,540.455,538.933,0
GENERATED VIA SPACETRACK.ORG API,18 SPCS,52365,STARLINK-3874,PAYLOAD,U,22045AL,2023-01-22 09:59:55,105728,15.08867053,9.33e-05,53.216,276.9793,51.437,308.6706,0,999,4347,0.0013681,0.00021568,0,3757897,0 STARLINK-3874,1 52365U 22045AL  23022.41661002  .00021568  00000-0  13681-2 0  9996,2 52365  53.2160 276.9793 0000933  51.4370 308.6706 15.08867053 43479,2022-045AL,52365,6917.798,95.436,540.308,539.017,0
GENERATED VIA SPACETRACK.ORG API,18 SPCS,52365,STARLINK-3874,PAYLOAD,U,22045AL,2023-01-22 16:21:28,468800,15.08855124,0.0003708,53.2159,275.7925,75.8557,284.2847,0,999,4351,0.0019613,0.0003108,0,3758188,0 STARLINK-3874,1 52365U 22045AL  23022.68157950  .00031080  00000-0  19613-2 0  9998,2 52365  53.2159 275.7925 0003708  75.8557 284.2847 15.08855124 43517,2022-045AL,52365,6917.834,95.437,542.264,537.134,0
GENERATED VIA SPACETRACK.ORG API,18 SPCS,52365,STARLINK-3874,PAYLOAD,U,22045AL,2023-01-22 22:43:00,784704,15.08834275,0.000114,53.2157,274.6019,69.7371,290.3743,0,999,4355,0.0017504,0.00027675,0,3758566,0 STARLINK-3874,1 52365U 22045AL  23022.94653686  .00027675  00000-0  17504-2 0  9996,2 52365  53.2157 274.6019 0001140  69.7371 290.3743 15.08834275 43552,2022-045AL,52365,6917.898,95.438,540.552,538.974,0
GENERATED VIA SPACETRACK.ORG API,18 SPCS,52365,STARLINK-3874,PAYLOAD,U,22045AL,2023-01-23 16:12:15,433632,15.0884704,0.0001319,53.2158,271.3312,70.0561,290.0573,0,999,4366,0.00091802,0.00014355,0,3759162,0 STARLINK-3874,1 52365U 22045AL  23023.67517863  .00014355  00000-0  91802-3 0  9998,2 52365  53.2158 271.3312 0001319  70.0561 290.0573 15.08847040 43661,2022-045AL,52365,6917.859,95.437,540.636,538.811,0
GENERATED VIA SPACETRACK.ORG API,18 SPCS,52365,STARLINK-3874,PAYLOAD,U,22045AL,2023-01-25 01:35:20,906016,15.08851552,0.0001399,53.2157,265.0857,69.1998,290.9144,0,999,4387,0.0003484,5.263e-05,0,3760695,0 STARLINK-3874,1 52365U 22045AL  23025.06621419  .00005263  00000-0  34840-3 0  9993,2 52365  53.2157 265.0857 0001399  69.1998 290.9144 15.08851552 43874,2022-045AL,52365,6917.845,95.437,540.678,538.742,0
GENERATED VIA SPACETRACK.ORG API,18 SPCS,52365,STARLINK-3874,PAYLOAD,U,22045AL,2023-01-25 01:35:20,906016,15.08851552,0.0001399,53.2157,265.0857,69.1998,290.9144,0,999,4387,0.0003484,5.263e-05,0,3761297,0 STARLINK-3874,1 52365U 22045AL  23025.06621419  .00005263  00000-0  34840-3 0  9993,2 52365  53.2157 265.0857 0001399  69.1998 290.9144 15.08851552 43874,2022-045AL,52365,6917.845,95.437,540.678,538.742,0
GENERATED VIA SPACETRACK.ORG API,18 SPCS,52365,STARLINK-3874,PAYLOAD,U,22045AL,2023-01-25 19:04:35,637888,15.08839424,0.0001473,53.2164,261.8107,91.7876,268.3284,0,999,4398,4.9103e-05,4.94e-06,0,3761331,0 STARLINK-3874,1 52365U 22045AL  23025.79485692  .00000494  00000-0  49103-4 0  9994,2 52365  53.2164 261.8107 0001473  91.7876 268.3284 15.08839424 43983,2022-045AL,52365,6917.882,95.438,540.766,538.728,0
GENERATED VIA SPACETRACK.ORG API,18 SPCS,52365,STARLINK-3874,PAYLOAD,U,22045AL,2023-01-25 19:04:35,637888,15.08839424,0.0001473,53.2164,261.8107,91.7876,268.3284,0,999,4398,4.9103e-05,4.94e-06,0,3761360,0 STARLINK-3874,1 52365U 22045AL  23025.79485692  .00000494  00000-0  49103-4 0  9994,2 52365  53.2164 261.8107 0001473  91.7876 268.3284 15.08839424 43983,2022-045AL,52365,6917.882,95.438,540.766,538.728,0
GENERATED VIA SPACETRACK.ORG API,18 SPCS,52365,STARLINK-3874,PAYLOAD,U,22045AL,2023-01-26 01:26:08,47968,15.08843943,0.0001489,53.2166,260.6215,97.0356,263.0805,0,999,4402,2.514e-05,1.12e-06,0,3761951,0 STARLINK-3874,1 52365U 22045AL  23026.05981537  .00000112  00000-0  25140-4 0  9995,2 52365  53.2166 260.6215 0001489  97.0356 263.0805 15.08843943 44029,2022-045AL,52365,6917.868,95.437,540.763,538.703,0
GENERATED VIA SPACETRACK.ORG API,18 SPCS,52365,STARLINK-3874,PAYLOAD,U,22045AL,2023-01-26 22:06:08,926560,15.08842243,0.0001442,53.2162,256.7596,80.7291,279.3864,0,999,4415,3.4791e-05,2.66e-06,0,3762321,0 STARLINK-3874,1 52365U 22045AL  23026.92093665  .00000266  00000-0  34791-4 0  9999,2 52365  53.2162 256.7596 0001442  80.7291 279.3864 15.08842243 44150,2022-045AL,52365,6917.874,95.437,540.736,538.741,0
GENERATED VIA SPACETRACK.ORG API,18 SPCS,52365,STARLINK-3874,PAYLOAD,U,22045AL,2023-01-27 01:16:55,180416,15.08843023,0.0001319,53.2155,256.1633,94.9659,265.1484,0,999,4417,8.3131e-05,1.035e-05,0,3762956,0 STARLINK-3874,1 52365U 22045AL  23027.05341644  .00001035  00000-0  83131-4 0  9994,2 52365  53.2155 256.1633 0001319  94.9659 265.1484 15.08843023 44176,2022-045AL,52365,6917.871,95.437,540.649,538.824,0
GENERATED VIA SPACETRACK.ORG API,18 SPCS,52365,STARLINK-3874,PAYLOAD,U,22045AL,2023-01-27 18:46:10,173216,15.08835889,0.0001385,53.2161,252.8912,82.9487,277.1663,0,999,4428,2.3701e-05,8.9e-07,0,3763169,0 STARLINK-3874,1 52365U 22045AL  23027.78206219  .00000089  00000-0  23701-4 0  9997,2 52365  53.2161 252.8912 0001385  82.9487 277.1663 15.08835889 44280,2022-045AL,52365,6917.893,95.438,540.716,538.8,0
GENERATED VIA SPACETRACK.ORG API,18 SPCS,52365,STARLINK-3874,PAYLOAD,U,22045AL,2023-01-27 21:56:56,412384,15.08838994,0.0001329,53.2168,252.2972,84.7082,275.4062,0,999,4430,8.3465e-05,1.041e-05,0,3763218,0 STARLINK-3874,1 52365U 22045AL  23027.91454181  .00001041  00000-0  83465-4 0  9997,2 52365  53.2168 252.2972 0001329  84.7082 275.4062 15.08838994 44303,2022-045AL,52365,6917.883,95.438,540.668,538.829,0
GENERATED VIA SPACETRACK.ORG API,18 SPCS,52365,STARLINK-3874,PAYLOAD,U,22045AL,2023-01-28 13:50:47,950368,15.08836542,0.0001327,53.2166,249.324,82.2548,277.8595,0,999,4440,0.00010267,1.346e-05,0,3763924,0 STARLINK-3874,1 52365U 22045AL  23028.57694387  .00001346  00000-0  10267-3 0  9991,2 52365  53.2166 249.3240 0001327  82.2548 277.8595 15.08836542 44409,2022-045AL,52365,6917.891,95.438,540.674,538.838,0
GENERATED VIA SPACETRACK.ORG API,18 SPCS,52365,STARLINK-3874,PAYLOAD,U,22045AL,2023-01-28 21:47:43,271808,15.08843492,0.0001324,53.2169,247.8371,81.4966,278.6176,0,999,4445,0.00011024,1.467e-05,0,3764137,0 STARLINK-3874,1 52365U 22045AL  23028.90813972  .00001467  00000-0  11024-3 0  9997,2 52365  53.2169 247.8371 0001324  81.4966 278.6176 15.08843492 44453,2022-045AL,52365,6917.87,95.437,540.651,538.819,0
GENERATED VIA SPACETRACK.ORG API,18 SPCS,52365,STARLINK-3874,PAYLOAD,U,22045AL,2023-01-28 21:47:43,271808,15.08843492,0.0001324,53.2169,247.8371,81.4966,278.6176,0,999,4445,0.00011024,1.467e-05,0,3764201,0 STARLINK-3874,1 52365U 22045AL  23028.90813972  .00001467  00000-0  11024-3 0  9997,2 52365  53.2169 247.8371 0001324  81.4966 278.6176 15.08843492 44453,2022-045AL,52365,6917.87,95.437,540.651,538.819,0
GENERATED VIA SPACETRACK.ORG API,18 SPCS,52365,STARLINK-3874,PAYLOAD,U,22045AL,2023-01-29 20:03:07,766784,15.08836355,0.0001268,53.2165,243.6739,89.4345,270.6792,0,999,4459,5.5027e-05,5.88e-06,0,3764961,0 STARLINK-3874,1 52365U 22045AL  23029.83550656  .00000588  00000-0  55027-4 0  9992,2 52365  53.2165 243.6739 0001268  89.4345 270.6792 15.08836355 44598,2022-045AL,52365,6917.892,95.438,540.634,538.879,0
GENERATED VIA SPACETRACK.ORG API,18 SPCS,52365,STARLINK-3874,PAYLOAD,U,22045AL,2023-01-30 13:32:22,26912,15.0884003,0.0001263,53.2164,240.4026,90.9996,269.114,0,999,4470,8.4562e-05,1.058e-05,0,3765576,0 STARLINK-3874,1 52365U 22045AL  23030.56414383  .00001058  00000-0  84562-4 0  9999,2 52365  53.2164 240.4026 0001263  90.9996 269.1140 15.08840030 44703,2022-045AL,52365,6917.88,95.438,540.619,538.872,0
GENERATED VIA SPACETRACK.ORG API,18 SPCS,52365,STARLINK-3874,PAYLOAD,U,22045AL,2023-01-30 21:29:17,387232,15.08845127,0.0001253,53.2165,238.9158,91.4684,268.6452,0,999,4475,5.9494e-05,6.59e-06,0,3765849,0 STARLINK-3874,1 52365U 22045AL  23030.89534013  .00000659  00000-0  59494-4 0  9990,2 52365  53.2165 238.9158 0001253  91.4684 268.6452 15.08845127 44758,2022-045AL,52365,6917.865,95.437,540.597,538.863,0
GENERATED VIA SPACETRACK.ORG API,18 SPCS,52365,STARLINK-3874,PAYLOAD,U,22045AL,2023-01-30 23:04:40,518912,15.08844925,0.0001255,53.2165,238.6184,91.7166,268.397,0,999,4476,5.5597e-05,5.97e-06,0,3765805,0 STARLINK-3874,1 52365U 22045AL  23030.96158008  .00000597  00000-0  55597-4 0  9995,2 52365  53.2165 238.6184 0001255  91.7166 268.3970 15.08844925 44762,2022-045AL,52365,6917.865,95.437,540.599,538.862,0
GENERATED VIA SPACETRACK.ORG API,18 SPCS,52365,STARLINK-3874,PAYLOAD,U,22045AL,2023-01-31 13:23:09,181824,15.08837228,0.0001294,53.2166,235.9436,85.1077,275.0063,0,999,4485,7.8839e-05,9.67e-06,0,3766439,0 STARLINK-3874,1 52365U 22045AL  23031.55774516  .00000967  00000-0  78839-4 0  9994,2 52365  53.2166 235.9436 0001294  85.1077 275.0063 15.08837228 44850,2022-045AL,52365,6917.889,95.438,540.649,538.859,0
